NORAD_CAT_ID,OBJECT_NAME,OBJECT_TYPE,EPOCH,MEAN_MOTION,ECCENTRICITY,INCLINATION,RA_OF_ASC_NODE,ARG_OF_PERICENTER,MEAN_ANOMALY,BSTAR,MEAN_MOTION_DOT,MEAN_MOTION_DDOT,TLE_LINE0,TLE_LINE1,TLE_LINE2,SEMIMAJOR_AXIS,PERIOD,APOGEE,PERIGEE,DECAYED
52650.0,STARLINK-3891,PAYLOAD,2022-07-08 12:00:02,15.73255258,0.0003242,53.2138,169.0488,18.3115,339.4567,0.00049242,0.00069237,0.0,0 STARLINK-3891,1 52650U 22052BE  22189.50002315  .00069237  00000-0  49242-3 0  9998,2 52650  53.2138 169.0488 0003242  18.3115 339.4567 15.73255258  8983,6727.738,91.53,351.784,347.422,0.0
52650.0,STARLINK-3891,PAYLOAD,2022-07-08 14:00:01,15.7328135,0.000314,53.214,168.6358,18.9372,91.012,0.00025836,0.00035926,0.0,0 STARLINK-3891,1 52650U 22052BE  22189.58334491  .00035926  00000-0  25836-3 0  9990,2 52650  53.2140 168.6358 0003140  18.9372  91.0120 15.73281350  1302,6727.663000000001,91.528,351.641,347.416,0.0
52650.0,STARLINK-3891,PAYLOAD,2022-07-08 20:00:01,15.7330265,0.0002933,53.2141,167.3971,18.4371,68.346,-4.0256e-05,-6.295e-05,0.0,0 STARLINK-3891,1 52650U 22052BE  22189.83335648 -.00006295  00000-0 -40256-4 0  9996,2 52650  53.2141 167.3971 0002933  18.4371  68.3460 15.73302650  9043,6727.603,91.527,351.441,347.494,0.0
52650.0,STARLINK-3891,PAYLOAD,2022-07-08 22:00:01,15.73331409,0.0002856999999999,53.2143,166.9845,18.4027,180.6344,-0.00051741,-0.00073036,0.0,0 STARLINK-3891,1 52650U 22052BE  22189.91668981 -.00073036  00000-0 -51741-3 0  9991,2 52650  53.2143 166.9845 0002857  18.4027 180.6344 15.73331409  1307,6727.521,91.526,351.30800000000005,347.463,0.0
52650.0,STARLINK-3891,PAYLOAD,2022-07-09 14:00:01,15.73229178,0.0003147,53.2139,163.687,17.5012,359.1561,-0.00069325,-0.00096954,0.0,0 STARLINK-3891,1 52650U 22052BE  22190.58334491 -.00096954  00000-0 -69325-3 0  9993,2 52650  53.2139 163.6870 0003147  17.5012 359.1561 15.73229178  1304,6727.812,91.531,351.7940000000001,347.56,0.0
52650.0,STARLINK-3891,PAYLOAD,2022-07-09 20:00:01,15.73203152,0.0003197,53.2173,162.4451,22.7474,330.5136,9.4277e-06,7.000000000000003e-06,0.0,0 STARLINK-3891,1 52650U 22052BE  22190.83334491  .00000700  00000-0  94277-5 0  9999,2 52650  53.2173 162.4451 0003197  22.7474 330.5136 15.73203152  1304,6727.886,91.533,351.902,347.6,0.0
52650.0,STARLINK-3891,PAYLOAD,2022-07-10 04:00:00,15.73214217,0.0003102,53.2137,160.8009,18.4811,63.8366,-0.00026933,-0.00038283,0.0,0 STARLINK-3891,1 52650U 22052BE  22191.16667824 -.00038283  00000-0 -26933-3 0  9996,2 52650  53.2137 160.8009 0003102  18.4811  63.8366 15.73214217  9255,6727.855,91.532,351.807,347.6330000000001,0.0
52650.0,STARLINK-3891,PAYLOAD,2022-07-10 12:00:00,15.73211786,0.0003121,53.2136,159.1512,17.0061,154.2327,8.9043e-05,0.000119,0.0,0 STARLINK-3891,1 52650U 22052BE  22191.50001157  .00011900  00000-0  89043-4 0  9992,2 52650  53.2136 159.1512 0003121  17.0061 154.2327 15.73211786  9303,6727.861999999999,91.532,351.826,347.62699999999984,0.0
52650.0,STARLINK-3891,PAYLOAD,2022-07-10 14:00:01,15.73222443,0.0003039,53.2138,158.7381,17.4187,266.0527,-3.9458e-07,-6.79e-06,0.0,0 STARLINK-3891,1 52650U 22052BE  22191.58334491 -.00000679  00000-0 -39458-6 0  9990,2 52650  53.2138 158.7381 0003039  17.4187 266.0527 15.73222443  1303,6727.831,91.532,351.741,347.652,0.0
52650.0,STARLINK-3891,PAYLOAD,2022-07-10 22:00:00,15.73259284,0.0002864,53.2143,157.0875,17.7577,354.6666,-0.00041371,-0.00058443,0.0,0 STARLINK-3891,1 52650U 22052BE  22191.91667824 -.00058443  00000-0 -41371-3 0  9992,2 52650  53.2143 157.0875 0002864  17.7577 354.6666 15.73259284  1301,6727.726,91.53,351.51800000000014,347.664,0.0
52650.0,STARLINK-3891,PAYLOAD,2022-07-11 14:00:01,15.73200902,0.0002943,53.2141,153.7891,12.488,177.8356,5.8102e-05,7.541e-05,0.0,0 STARLINK-3891,1 52650U 22052BE  22192.58334491  .00007541  00000-0  58102-4 0  9999,2 52650  53.2141 153.7891 0002943  12.4880 177.8356 15.73200902  1301,6727.893,91.533,351.73800000000006,347.778,0.0
52650.0,STARLINK-3891,PAYLOAD,2022-07-11 22:00:00,15.73231818,0.0002807,53.2144,152.139,17.1906,262.0522,-0.00038991,-0.00055073,0.0,0 STARLINK-3891,1 52650U 22052BE  22192.91667824 -.00055073  00000-0 -38991-3 0  9993,2 52650  53.2144 152.1390 0002807  17.1906 262.0522 15.73231818  1303,6727.804,91.531,351.55800000000005,347.781,0.0
52650.0,STARLINK-3891,PAYLOAD,2022-07-12 14:00:01,15.7324858,0.0002831,53.2143,148.8404,15.1806,81.9713,-0.00035417,-0.00050147,0.0,0 STARLINK-3891,1 52650U 22052BE  22193.58334491 -.00050147  00000-0 -35417-3 0  9995,2 52650  53.2143 148.8404 0002831  15.1806  81.9713 15.73248580  1308,6727.757,91.53,351.526,347.717,0.0
52650.0,STARLINK-3891,PAYLOAD,2022-07-12 22:00:00,15.73243833,0.0002692,53.2149,147.1903,16.7777,169.3229,9.9929e-05,0.00013453,0.0,0 STARLINK-3891,1 52650U 22052BE  22193.91667824  .00013453  00000-0  99929-4 0  9997,2 52650  53.2149 147.1903 0002692  16.7777 169.3229 15.73243833  1308,6727.77,91.531,351.446,347.824,0.0
52650.0,STARLINK-3891,PAYLOAD,2022-07-13 04:00:00,15.7328044,0.0002969,53.2148,145.9547,15.0833,147.7635,-0.00078954,-0.00110398,0.0,0 STARLINK-3891,1 52650U 22052BE  22194.16667824 -.00110398  00000-0 -78954-3 0  9997,2 52650  53.2148 145.9547 0002969  15.0833 147.7635 15.73280440  9729,6727.666,91.529,351.528,347.533,0.0
52650.0,STARLINK-3891,PAYLOAD,2022-07-13 13:59:01,15.7319535,0.0003211,53.2147,143.8949,27.5533,332.5657,0.0003044,0.00042314,0.0,0 STARLINK-3891,1 52650U 22052BE  22194.58265092  .00042314  00000-0  30440-3 0  9992,2 52650  53.2147 143.8949 0003211  27.5533 332.5657 15.73195350  9427,6727.908,91.533,351.934,347.61300000000006,0.0
52650.0,STARLINK-3891,PAYLOAD,2022-07-13 22:00:00,15.73129046,0.0002767,53.2151,142.2421,19.4484,73.4638,-0.00016622,-0.00023818,0.0,0 STARLINK-3891,1 52650U 22052BE  22194.91667824 -.00023818  00000-0 -16622-3 0  9994,2 52650  53.2151 142.2421 0002767  19.4484  73.4638 15.73129046  1308,6728.097,91.537,351.824,348.101,0.0
52650.0,STARLINK-3891,PAYLOAD,2022-07-14 04:00:00,15.73093506,0.0003009,53.2149,141.0069,20.3826,49.1477,0.00030295,0.00041922,0.0,0 STARLINK-3891,1 52650U 22052BE  22195.16667824  .00041922  00000-0  30295-3 0  9998,2 52650  53.2149 141.0069 0003009  20.3826  49.1477 15.73093506  9884,6728.199000000001,91.539,352.088,348.039,0.0
52650.0,STARLINK-3891,PAYLOAD,2022-07-14 14:00:01,15.73142549,0.0002843,53.2151,138.9439,21.2816,249.2785,0.00024664,0.00034053,0.0,0 STARLINK-3891,1 52650U 22052BE  22195.58334491  .00034053  00000-0  24664-3 0  9995,2 52650  53.2151 138.9439 0002843  21.2816 249.2785 15.73142549  1303,6728.059,91.537,351.837,348.011,0.0
52650.0,STARLINK-3891,PAYLOAD,2022-07-14 22:00:00,15.73186203,0.00028,53.2155,137.2944,23.7064,335.7142,0.00021929,0.00030251,0.0,0 STARLINK-3891,1 52650U 22052BE  22195.91667824  .00030251  00000-0  21929-3 0  9998,2 52650  53.2155 137.2944 0002800  23.7064 335.7142 15.73186203  1308,6727.935,91.534,351.68300000000005,347.916,0.0
52650.0,STARLINK-3891,PAYLOAD,2022-07-15 04:00:00,15.73195937,0.0003016,53.2155,136.0588,23.276,312.8403,0.00038792,0.00054172,0.0,0 STARLINK-3891,1 52650U 22052BE  22196.16667824  .00054172  00000-0  38792-3 0  9990,2 52650  53.2155 136.0588 0003016  23.2760 312.8403 15.73195937 10037,6727.906999999997,91.533,351.801,347.74300000000005,0.0
52650.0,STARLINK-3891,PAYLOAD,2022-07-15 12:00:00,15.73503368,0.0003273999999999,53.2153,134.4077,38.8939,26.4729,3.6204e-05,4.525e-05,0.0,0 STARLINK-3891,1 52650U 22052BE  22196.50001157  .00004525  00000-0  36204-4 0  9993,2 52650  53.2153 134.4077 0003274  38.8939  26.4729 15.73503368 10092,6727.03,91.516,351.098,346.6930000000001,0.0
52650.0,STARLINK-3891,PAYLOAD,2022-07-15 14:00:01,15.73506969,0.0003173,53.2155,133.9947,39.4709,138.2186,1.1444e-05,1.002e-05,0.0,0 STARLINK-3891,1 52650U 22052BE  22196.58334491  .00001002  00000-0  11444-4 0  9997,2 52650  53.2155 133.9947 0003173  39.4709 138.2186 15.73506969  1307,6727.02,91.515,351.02,346.751,0.0
52650.0,STARLINK-3891,PAYLOAD,2022-07-15 22:00:00,15.73523655,0.0002991,53.2154,132.3449,38.6327,228.3729,-6.582699999999999e-05,-9.985e-05,0.0,0 STARLINK-3891,1 52650U 22052BE  22196.91667824 -.00009985  00000-0 -65827-4 0  9997,2 52650  53.2154 132.3449 0002991  38.6327 228.3729 15.73523655  1305,6726.973000000001,91.514,350.85,346.826,0.0
52650.0,STARLINK-3891,PAYLOAD,2022-07-16 04:00:00,15.73548287,0.0002965,53.2152,131.1088,32.566,211.3998,-0.0010945,-0.00153779,0.0,0 STARLINK-3891,1 52650U 22052BE  22197.16667824 -.00153779  00000-0 -10945-2 0  9995,2 52650  53.2152 131.1088 0002965  32.5660 211.3998 15.73548287 10198,6726.901999999999,91.513,350.76199999999994,346.773,0.0
52650.0,STARLINK-3891,PAYLOAD,2022-07-16 14:00:01,15.73414936,0.0002426,53.215,129.0442,20.4643,65.1048,-0.001199,-0.00167158,0.0,0 STARLINK-3891,1 52650U 22052BE  22197.58334491 -.00167158  00000-0 -11990-2 0  9999,2 52650  53.2150 129.0442 0002426  20.4643  65.1048 15.73414936  1302,6727.281999999997,91.521,350.779,347.515,0.0
52650.0,STARLINK-3891,PAYLOAD,2022-07-16 22:00:00,15.73326672,0.0002377,53.2152,127.3944,18.7185,155.9589,-0.0022168,-0.00302521,0.0,0 STARLINK-3891,1 52650U 22052BE  22197.91667824 -.00302521  00000-0 -22168-2 0  9999,2 52650  53.2152 127.3944 0002377  18.7185 155.9589 15.73326672  1305,6727.534000000002,91.526,350.99800000000016,347.8,0.0
52650.0,STARLINK-3891,PAYLOAD,2022-07-17 04:00:01,15.73145832,0.0002624,53.2153,126.1587,17.5093,133.9797,-0.0018973,-0.00258355,0.0,0 STARLINK-3891,1 52650U 22052BE  22198.16668981 -.00258355  00000-0 -18973-2 0  9996,2 52650  53.2153 126.1587 0002624  17.5093 133.9797 15.73145832 10355,6728.05,91.536,351.68,348.149,0.0
52650.0,STARLINK-3891,PAYLOAD,2022-07-17 14:00:01,15.72875089,0.0002395,53.215,124.0954,18.6195,333.7261,-0.00029522,-0.00041284,0.0,0 STARLINK-3891,1 52650U 22052BE  22198.58334491 -.00041284  00000-0 -29522-3 0  9992,2 52650  53.2150 124.0954 0002395  18.6195 333.7261 15.72875089  1301,6728.821999999999,91.552,352.298,349.075,0.0
